CCSDS_OMM_VERS = 2.0
CREATION_DATE  = 
ORIGINATOR     = 

OBJECT_NAME    = SL-14 R/B
OBJECT_ID      = 1991-042B
CENTER_NAME    = EARTH
REF_FRAME      = TEME
TIME_SYSTEM    = UTC
MEAN_ELEMENT_THEORY = SGP/SGP4

EPOCH          = 2026-02-06T00:29:14.735616
MEAN_MOTION    = 14.81799343
ECCENTRICITY   = .0016774
INCLINATION    = 82.4900
RA_OF_ASC_NODE = 249.8869
ARG_OF_PERICENTER = 350.3519
MEAN_ANOMALY   = 9.7370

EPHEMERIS_TYPE = 0
CLASSIFICATION_TYPE = U
NORAD_CAT_ID   = 21423
ELEMENT_SET_NO = 999
REV_AT_EPOCH   = 84838
BSTAR          = .59867E-4
MEAN_MOTION_DOT = .497E-5
MEAN_MOTION_DDOT = 0

CCSDS_OMM_VERS = 2.0
CREATION_DATE  = 
ORIGINATOR     = 

OBJECT_NAME    = ERS-1
OBJECT_ID      = 1991-050A
CENTER_NAME    = EARTH
REF_FRAME      = TEME
TIME_SYSTEM    = UTC
MEAN_ELEMENT_THEORY = SGP/SGP4

EPOCH          = 2026-02-06T00:00:06.617376
MEAN_MOTION    = 14.39423069
ECCENTRICITY   = .0030977
INCLINATION    = 98.7896
RA_OF_ASC_NODE = 54.4378
ARG_OF_PERICENTER = 297.2004
MEAN_ANOMALY   = 62.6026

EPHEMERIS_TYPE = 0
CLASSIFICATION_TYPE = U
NORAD_CAT_ID   = 21574
ELEMENT_SET_NO = 999
REV_AT_EPOCH   = 81117
BSTAR          = .16398E-3
MEAN_MOTION_DOT = .466E-5
MEAN_MOTION_DDOT = 0

CCSDS_OMM_VERS = 2.0
CREATION_DATE  = 
ORIGINATOR     = 

OBJECT_NAME    = ARIANE 40 R/B
OBJECT_ID      = 1991-050F
CENTER_NAME    = EARTH
REF_FRAME      = TEME
TIME_SYSTEM    = UTC
MEAN_ELEMENT_THEORY = SGP/SGP4

EPOCH          = 2026-02-06T03:01:58.159776
MEAN_MOTION    = 14.42869890
ECCENTRICITY   = .0003663
INCLINATION    = 98.2078
RA_OF_ASC_NODE = 90.5371
ARG_OF_PERICENTER = 151.6461
MEAN_ANOMALY   = 208.4929

EPHEMERIS_TYPE = 0
CLASSIFICATION_TYPE = U
NORAD_CAT_ID   = 21610
ELEMENT_SET_NO = 999
REV_AT_EPOCH   = 81444
BSTAR          = .13825E-3
MEAN_MOTION_DOT = .42E-5
MEAN_MOTION_DDOT = 0

CCSDS_OMM_VERS = 2.0
CREATION_DATE  = 
ORIGINATOR     = 

OBJECT_NAME    = INTERCOSMOS 25
OBJECT_ID      = 1991-086A
CENTER_NAME    = EARTH
REF_FRAME      = TEME
TIME_SYSTEM    = UTC
MEAN_ELEMENT_THEORY = SGP/SGP4

EPOCH          = 2026-02-05T20:54:19.384416
MEAN_MOTION    = 12.11912404
ECCENTRICITY   = .1486639
INCLINATION    = 82.6087
RA_OF_ASC_NODE = 329.2357
ARG_OF_PERICENTER = 185.4817
MEAN_ANOMALY   = 172.8249

EPHEMERIS_TYPE = 0
CLASSIFICATION_TYPE = U
NORAD_CAT_ID   = 21819
ELEMENT_SET_NO = 999
REV_AT_EPOCH   = 49283
BSTAR          = .20019E-3
MEAN_MOTION_DOT = .1034E-4
MEAN_MOTION_DDOT = 0

CCSDS_OMM_VERS = 2.0
CREATION_DATE  = 
ORIGINATOR     = 

OBJECT_NAME    = SL-8 R/B
OBJECT_ID      = 1992-008B
CENTER_NAME    = EARTH
REF_FRAME      = TEME
TIME_SYSTEM    = UTC
MEAN_ELEMENT_THEORY = SGP/SGP4

EPOCH          = 2026-02-06T04:24:26.350848
MEAN_MOTION    = 13.75969506
ECCENTRICITY   = .0033708
INCLINATION    = 82.9268
RA_OF_ASC_NODE = 291.2160
ARG_OF_PERICENTER = 221.2607
MEAN_ANOMALY   = 303.9106

EPHEMERIS_TYPE = 0
CLASSIFICATION_TYPE = U
NORAD_CAT_ID   = 21876
ELEMENT_SET_NO = 999
REV_AT_EPOCH   = 70508
BSTAR          = .57699E-4
MEAN_MOTION_DOT = .71E-6
MEAN_MOTION_DDOT = 0

CCSDS_OMM_VERS = 2.0
CREATION_DATE  = 
ORIGINATOR     = 

OBJECT_NAME    = SL-8 R/B
OBJECT_ID      = 1992-020B
CENTER_NAME    = EARTH
REF_FRAME      = TEME
TIME_SYSTEM    = UTC
MEAN_ELEMENT_THEORY = SGP/SGP4

EPOCH          = 2026-02-05T23:50:52.853856
MEAN_MOTION    = 13.75544599
ECCENTRICITY   = .0029472
INCLINATION    = 82.9325
RA_OF_ASC_NODE = 177.2878
ARG_OF_PERICENTER = 28.6953
MEAN_ANOMALY   = 110.6269

EPHEMERIS_TYPE = 0
CLASSIFICATION_TYPE = U
NORAD_CAT_ID   = 21938
ELEMENT_SET_NO = 999
REV_AT_EPOCH   = 69677
BSTAR          = .12653E-3
MEAN_MOTION_DOT = .137E-5
MEAN_MOTION_DDOT = 0

CCSDS_OMM_VERS = 2.0
CREATION_DATE  = 
ORIGINATOR     = 

OBJECT_NAME    = USA 81
OBJECT_ID      = 1992-023A
CENTER_NAME    = EARTH
REF_FRAME      = TEME
TIME_SYSTEM    = UTC
MEAN_ELEMENT_THEORY = SGP/SGP4

EPOCH          = 2026-02-05T19:17:06.753696
MEAN_MOTION    = 14.32356054
ECCENTRICITY   = .00025652
INCLINATION    = 85.0120
RA_OF_ASC_NODE = 149.8263
ARG_OF_PERICENTER = 106.0879
MEAN_ANOMALY   = 254.0596

EPHEMERIS_TYPE = 0
CLASSIFICATION_TYPE = U
NORAD_CAT_ID   = 21949
ELEMENT_SET_NO = 999
REV_AT_EPOCH   = 9022
BSTAR          = .11338591E-3
MEAN_MOTION_DOT = .326E-5
MEAN_MOTION_DDOT = 0

CCSDS_OMM_VERS = 2.0
CREATION_DATE  = 
ORIGINATOR     = 

OBJECT_NAME    = COSMOS 2219
OBJECT_ID      = 1992-076A
CENTER_NAME    = EARTH
REF_FRAME      = TEME
TIME_SYSTEM    = UTC
MEAN_ELEMENT_THEORY = SGP/SGP4

EPOCH          = 2026-02-06T02:42:52.040448
MEAN_MOTION    = 14.14077010
ECCENTRICITY   = .0020447
INCLINATION    = 71.0586
RA_OF_ASC_NODE = 84.0822
ARG_OF_PERICENTER = 250.6467
MEAN_ANOMALY   = 109.2445

EPHEMERIS_TYPE = 0
CLASSIFICATION_TYPE = U
NORAD_CAT_ID   = 22219
ELEMENT_SET_NO = 999
REV_AT_EPOCH   = 71391
BSTAR          = -.54746E-4
MEAN_MOTION_DOT = -.152E-5
MEAN_MOTION_DDOT = 0

CCSDS_OMM_VERS = 2.0
CREATION_DATE  = 
ORIGINATOR     = 

OBJECT_NAME    = SL-16 R/B
OBJECT_ID      = 1992-076B
CENTER_NAME    = EARTH
REF_FRAME      = TEME
TIME_SYSTEM    = UTC
MEAN_ELEMENT_THEORY = SGP/SGP4

EPOCH          = 2026-02-06T02:07:43.406112
MEAN_MOTION    = 14.16854801
ECCENTRICITY   = .0011676
INCLINATION    = 70.9981
RA_OF_ASC_NODE = 254.9417
ARG_OF_PERICENTER = 152.3831
MEAN_ANOMALY   = 15.0982

EPHEMERIS_TYPE = 0
CLASSIFICATION_TYPE = U
NORAD_CAT_ID   = 22220
ELEMENT_SET_NO = 999
REV_AT_EPOCH   = 71735
BSTAR          = .13513E-3
MEAN_MOTION_DOT = .223E-5
MEAN_MOTION_DDOT = 0

CCSDS_OMM_VERS = 2.0
CREATION_DATE  = 
ORIGINATOR     = 

OBJECT_NAME    = COSMOS 2221
OBJECT_ID      = 1992-080A
CENTER_NAME    = EARTH
REF_FRAME      = TEME
TIME_SYSTEM    = UTC
MEAN_ELEMENT_THEORY = SGP/SGP4

EPOCH          = 2026-02-05T19:15:08.152416
MEAN_MOTION    = 14.96072147
ECCENTRICITY   = .00130887
INCLINATION    = 82.5061
RA_OF_ASC_NODE = 309.6189
ARG_OF_PERICENTER = 304.6483
MEAN_ANOMALY   = 55.3504

EPHEMERIS_TYPE = 0
CLASSIFICATION_TYPE = U
NORAD_CAT_ID   = 22236
ELEMENT_SET_NO = 999
REV_AT_EPOCH   = 77602
BSTAR          = .28250264E-3
MEAN_MOTION_DOT = .3203E-4
MEAN_MOTION_DDOT = 0

CCSDS_OMM_VERS = 2.0
CREATION_DATE  = 
ORIGINATOR     = 

OBJECT_NAME    = SL-16 R/B
OBJECT_ID      = 1992-093B
CENTER_NAME    = EARTH
REF_FRAME      = TEME
TIME_SYSTEM    = UTC
MEAN_ELEMENT_THEORY = SGP/SGP4

EPOCH          = 2026-02-06T01:54:05.574816
MEAN_MOTION    = 14.15441420
ECCENTRICITY   = .0005085
INCLINATION    = 71.0202
RA_OF_ASC_NODE = 70.6273
ARG_OF_PERICENTER = 326.6801
MEAN_ANOMALY   = 33.4001

EPHEMERIS_TYPE = 0
CLASSIFICATION_TYPE = U
NORAD_CAT_ID   = 22285
ELEMENT_SET_NO = 999
REV_AT_EPOCH   = 70868
BSTAR          = -.68524E-4
MEAN_MOTION_DOT = -.181E-5
MEAN_MOTION_DDOT = 0

CCSDS_OMM_VERS = 2.0
CREATION_DATE  = 
ORIGINATOR     = 

OBJECT_NAME    = COSMOS 2228
OBJECT_ID      = 1992-094A
CENTER_NAME    = EARTH
REF_FRAME      = TEME
TIME_SYSTEM    = UTC
MEAN_ELEMENT_THEORY = SGP/SGP4

EPOCH          = 2026-02-06T02:33:41.586912
MEAN_MOTION    = 14.97045187
ECCENTRICITY   = .0019275
INCLINATION    = 82.5157
RA_OF_ASC_NODE = 267.5537
ARG_OF_PERICENTER = 51.0344
MEAN_ANOMALY   = 309.2591

EPHEMERIS_TYPE = 0
CLASSIFICATION_TYPE = U
NORAD_CAT_ID   = 22286
ELEMENT_SET_NO = 999
REV_AT_EPOCH   = 77133
BSTAR          = .26026E-3
MEAN_MOTION_DOT = .3034E-4
MEAN_MOTION_DDOT = 0

